ONEWEB-0092             
1 45437U 20020P   26066.31510680  .00000237  00000+0  63236-3 0  9995
2 45437  87.8861  41.3177 0001791  71.5021 288.6301 13.11415334289430
ONEWEB-0085             
1 45438U 20020Q   26065.97006413 -.00000121  00000+0 -37823-3 0  9998
2 45438  87.8857  41.3905 0001825  82.3233 277.8103 13.11418476289270
ONEWEB-0096             
1 45439U 20020R   26065.97176201 -.00000089  00000+0 -28611-3 0  9990
2 45439  87.8865  41.3784 0001760  82.7930 277.3398 13.11418024289260
ONEWEB-0037             
1 45440U 20020S   26066.18115196 -.00000510  00000+0 -14760-2 0  9990
2 45440  87.8871  41.3127 0001859  80.2936 279.8402 13.11415054289328
ONEWEB-0042             
1 45441U 20020T   26065.35106825 -.00000350  00000+0 -10248-2 0  9997
2 45441  87.8863  41.4999 0001747  82.6126 277.5201 13.11417368289187
ONEWEB-0098             
1 45442U 20020U   26065.88104741 -.00000438  00000+0 -12722-2 0  9997
2 45442  87.8861  41.4056 0001927  85.7229 274.4119 13.11416231289236
ONEWEB-0055             
1 45443U 20020V   26065.94039989 -.00000227  00000+0 -67550-3 0  9992
2 45443  87.8862  41.3939 0001854  84.4750 275.6589 13.11414935289212
ONEWEB-0093             
1 45444U 20020W   26066.29744275  .00000599  00000+0  16542-2 0  9997
2 45444  87.8867  41.3125 0001417  79.9530 280.1757 13.11416657289328
ONEWEB-0029             
1 45445U 20020X   26066.31341025  .00000277  00000+0  74664-3 0  9990
2 45445  87.8860  41.3208 0001669  85.4309 274.7010 13.11414472289301
ONEWEB-0068             
1 45446U 20020Y   26066.29716455  .00000556  00000+0  15331-2 0  9996
2 45446  87.8866  41.3150 0001638  85.4640 274.6675 13.11416825289241
ONEWEB-0046             
1 45447U 20020Z   26066.28881990  .00000324  00000+0  87915-3 0  9994
2 45447  87.8868  41.3232 0001686  77.4155 282.7162 13.11417584289255
ONEWEB-0063             
1 45448U 20020AA  26066.31764161  .00000069  00000+0  15968-3 0  9994
2 45448  87.8866  41.3152 0001795  75.3622 284.7705 13.11414451289347
ONEWEB-0019             
1 45449U 20020AB  26065.89871592  .00000059  00000+0  13199-3 0  9997
2 45449  87.8856  41.3927 0001965  86.3989 273.7364 13.11417340289130
ONEWEB-0094             
1 45450U 20020AC  26066.29658501  .00000031  00000+0  45435-4 0  9996
2 45450  87.9158  26.0723 0001808  87.4760 272.6579 13.17647021292897
ONEWEB-0087             
1 45451U 20020AD  26065.94618540 -.00000328  00000+0 -96196-3 0  9997
2 45451  87.8869  41.3554 0001546  86.9425 273.1880 13.11414914289185
ONEWEB-0082             
1 45452U 20020AE  26065.94293217 -.00000367  00000+0 -10712-2 0  9990
2 45452  87.8869  41.3804 0001614  89.0500 271.0813 13.11415111289271
ONEWEB-0050             
1 45453U 20020AF  26066.00464018  .00002014  00000+0  20681-3 0  9994
2 45453  88.9197 247.1226 0003421  26.9209 333.2197 14.89990317325163
