[{"OBJECT_NAME":"ONEWEB-0092","OBJECT_ID":"2020-020P","EPOCH":"2026-03-07T07:33:45.227520","MEAN_MOTION":13.11415334,"ECCENTRICITY":0.00017912,"INCLINATION":87.8861,"RA_OF_ASC_NODE":41.3177,"ARG_OF_PERICENTER":71.5021,"MEAN_ANOMALY":288.6301,"EPHEMERIS_TYPE":0,"CLASSIFICATION_TYPE":"U","NORAD_CAT_ID":45437,"ELEMENT_SET_NO":999,"REV_AT_EPOCH":28943,"BSTAR":0.00063235849,"MEAN_MOTION_DOT":2.37e-6,"MEAN_MOTION_DDOT":0},{"OBJECT_NAME":"ONEWEB-0085","OBJECT_ID":"2020-020Q","EPOCH":"2026-03-06T23:16:53.540832","MEAN_MOTION":13.11418476,"ECCENTRICITY":0.00018257,"INCLINATION":87.8857,"RA_OF_ASC_NODE":41.3905,"ARG_OF_PERICENTER":82.3233,"MEAN_ANOMALY":277.8103,"EPHEMERIS_TYPE":0,"CLASSIFICATION_TYPE":"U","NORAD_CAT_ID":45438,"ELEMENT_SET_NO":999,"REV_AT_EPOCH":28927,"BSTAR":-0.00037823328,"MEAN_MOTION_DOT":-1.21e-6,"MEAN_MOTION_DDOT":0},{"OBJECT_NAME":"ONEWEB-0096","OBJECT_ID":"2020-020R","EPOCH":"2026-03-06T23:19:20.237664","MEAN_MOTION":13.11418024,"ECCENTRICITY":0.00017604,"INCLINATION":87.8865,"RA_OF_ASC_NODE":41.3784,"ARG_OF_PERICENTER":82.793,"MEAN_ANOMALY":277.3398,"EPHEMERIS_TYPE":0,"CLASSIFICATION_TYPE":"U","NORAD_CAT_ID":45439,"ELEMENT_SET_NO":999,"REV_AT_EPOCH":28926,"BSTAR":-0.00028611342,"MEAN_MOTION_DOT":-8.9e-7,"MEAN_MOTION_DDOT":0},{"OBJECT_NAME":"ONEWEB-0037","OBJECT_ID":"2020-020S","EPOCH":"2026-03-07T04:20:51.529344","MEAN_MOTION":13.11415054,"ECCENTRICITY":0.00018598,"INCLINATION":87.8871,"RA_OF_ASC_NODE":41.3127,"ARG_OF_PERICENTER":80.2936,"MEAN_ANOMALY":279.8402,"EPHEMERIS_TYPE":0,"CLASSIFICATION_TYPE":"U","NORAD_CAT_ID":45440,"ELEMENT_SET_NO":999,"REV_AT_EPOCH":28932,"BSTAR":-0.0014760041,"MEAN_MOTION_DOT":-5.1e-6,"MEAN_MOTION_DDOT":0},{"OBJECT_NAME":"ONEWEB-0042","OBJECT_ID":"2020-020T","EPOCH":"2026-03-06T08:25:32.296800","MEAN_MOTION":13.11417368,"ECCENTRICITY":0.00017479,"INCLINATION":87.8863,"RA_OF_ASC_NODE":41.4999,"ARG_OF_PERICENTER":82.6126,"MEAN_ANOMALY":277.5201,"EPHEMERIS_TYPE":0,"CLASSIFICATION_TYPE":"U","NORAD_CAT_ID":45441,"ELEMENT_SET_NO":999,"REV_AT_EPOCH":28918,"BSTAR":-0.0010247763,"MEAN_MOTION_DOT":-3.5e-6,"MEAN_MOTION_DDOT":0},{"OBJECT_NAME":"ONEWEB-0098","OBJECT_ID":"2020-020U","EPOCH":"2026-03-06T21:08:42.496224","MEAN_MOTION":13.11416231,"ECCENTRICITY":0.00019277,"INCLINATION":87.8861,"RA_OF_ASC_NODE":41.4056,"ARG_OF_PERICENTER":85.7229,"MEAN_ANOMALY":274.4119,"EPHEMERIS_TYPE":0,"CLASSIFICATION_TYPE":"U","NORAD_CAT_ID":45442,"ELEMENT_SET_NO":999,"REV_AT_EPOCH":28923,"BSTAR":-0.0012722095,"MEAN_MOTION_DOT":-4.38e-6,"MEAN_MOTION_DDOT":0},{"OBJECT_NAME":"ONEWEB-0055","OBJECT_ID":"2020-020V","EPOCH":"2026-03-06T22:34:10.550496","MEAN_MOTION":13.11414935,"ECCENTRICITY":0.00018544,"INCLINATION":87.8862,"RA_OF_ASC_NODE":41.3939,"ARG_OF_PERICENTER":84.475,"MEAN_ANOMALY":275.6589,"EPHEMERIS_TYPE":0,"CLASSIFICATION_TYPE":"U","NORAD_CAT_ID":45443,"ELEMENT_SET_NO":999,"REV_AT_EPOCH":28921,"BSTAR":-0.00067550099,"MEAN_MOTION_DOT":-2.27e-6,"MEAN_MOTION_DDOT":0},{"OBJECT_NAME":"ONEWEB-0093","OBJECT_ID":"2020-020W","EPOCH":"2026-03-07T07:08:19.053600","MEAN_MOTION":13.11416657,"ECCENTRICITY":0.00014171,"INCLINATION":87.8867,"RA_OF_ASC_NODE":41.3125,"ARG_OF_PERICENTER":79.953,"MEAN_ANOMALY":280.1757,"EPHEMERIS_TYPE":0,"CLASSIFICATION_TYPE":"U","NORAD_CAT_ID":45444,"ELEMENT_SET_NO":999,"REV_AT_EPOCH":28932,"BSTAR":0.0016542398,"MEAN_MOTION_DOT":5.99e-6,"MEAN_MOTION_DDOT":0},{"OBJECT_NAME":"ONEWEB-0029","OBJECT_ID":"2020-020X","EPOCH":"2026-03-07T07:31:18.645600","MEAN_MOTION":13.11414472,"ECCENTRICITY":0.00016695,"INCLINATION":87.886,"RA_OF_ASC_NODE":41.3208,"ARG_OF_PERICENTER":85.4309,"MEAN_ANOMALY":274.701,"EPHEMERIS_TYPE":0,"CLASSIFICATION_TYPE":"U","NORAD_CAT_ID":45445,"ELEMENT_SET_NO":999,"REV_AT_EPOCH":28930,"BSTAR":0.00074664385,"MEAN_MOTION_DOT":2.77e-6,"MEAN_MOTION_DDOT":0},{"OBJECT_NAME":"ONEWEB-0068","OBJECT_ID":"2020-020Y","EPOCH":"2026-03-07T07:07:55.017120","MEAN_MOTION":13.11416825,"ECCENTRICITY":0.00016389,"INCLINATION":87.8866,"RA_OF_ASC_NODE":41.315,"ARG_OF_PERICENTER":85.464,"MEAN_ANOMALY":274.6675,"EPHEMERIS_TYPE":0,"CLASSIFICATION_TYPE":"U","NORAD_CAT_ID":45446,"ELEMENT_SET_NO":999,"REV_AT_EPOCH":28924,"BSTAR":0.001533116,"MEAN_MOTION_DOT":5.56e-6,"MEAN_MOTION_DDOT":0},{"OBJECT_NAME":"ONEWEB-0046","OBJECT_ID":"2020-020Z","EPOCH":"2026-03-07T06:55:54.039360","MEAN_MOTION":13.11417584,"ECCENTRICITY":0.00016862,"INCLINATION":87.8868,"RA_OF_ASC_NODE":41.3232,"ARG_OF_PERICENTER":77.4155,"MEAN_ANOMALY":282.7162,"EPHEMERIS_TYPE":0,"CLASSIFICATION_TYPE":"U","NORAD_CAT_ID":45447,"ELEMENT_SET_NO":999,"REV_AT_EPOCH":28925,"BSTAR":0.00087914851,"MEAN_MOTION_DOT":3.24e-6,"MEAN_MOTION_DDOT":0},{"OBJECT_NAME":"ONEWEB-0063","OBJECT_ID":"2020-020AA","EPOCH":"2026-03-07T07:37:24.235104","MEAN_MOTION":13.11414451,"ECCENTRICITY":0.00017954,"INCLINATION":87.8866,"RA_OF_ASC_NODE":41.3152,"ARG_OF_PERICENTER":75.3622,"MEAN_ANOMALY":284.7705,"EPHEMERIS_TYPE":0,"CLASSIFICATION_TYPE":"U","NORAD_CAT_ID":45448,"ELEMENT_SET_NO":999,"REV_AT_EPOCH":28934,"BSTAR":0.00015968272,"MEAN_MOTION_DOT":6.9e-7,"MEAN_MOTION_DDOT":0},{"OBJECT_NAME":"ONEWEB-0019","OBJECT_ID":"2020-020AB","EPOCH":"2026-03-06T21:34:09.055488","MEAN_MOTION":13.1141734,"ECCENTRICITY":0.0001965,"INCLINATION":87.8856,"RA_OF_ASC_NODE":41.3927,"ARG_OF_PERICENTER":86.3989,"MEAN_ANOMALY":273.7364,"EPHEMERIS_TYPE":0,"CLASSIFICATION_TYPE":"U","NORAD_CAT_ID":45449,"ELEMENT_SET_NO":999,"REV_AT_EPOCH":28913,"BSTAR":0.00013199144,"MEAN_MOTION_DOT":5.9e-7,"MEAN_MOTION_DDOT":0},{"OBJECT_NAME":"ONEWEB-0094","OBJECT_ID":"2020-020AC","EPOCH":"2026-03-07T07:07:04.944864","MEAN_MOTION":13.17647021,"ECCENTRICITY":0.00018086,"INCLINATION":87.9158,"RA_OF_ASC_NODE":26.0723,"ARG_OF_PERICENTER":87.476,"MEAN_ANOMALY":272.6579,"EPHEMERIS_TYPE":0,"CLASSIFICATION_TYPE":"U","NORAD_CAT_ID":45450,"ELEMENT_SET_NO":999,"REV_AT_EPOCH":29289,"BSTAR":4.543519e-5,"MEAN_MOTION_DOT":3.1e-7,"MEAN_MOTION_DDOT":0},{"OBJECT_NAME":"ONEWEB-0087","OBJECT_ID":"2020-020AD","EPOCH":"2026-03-06T22:42:30.418560","MEAN_MOTION":13.11414914,"ECCENTRICITY":0.00015466,"INCLINATION":87.8869,"RA_OF_ASC_NODE":41.3554,"ARG_OF_PERICENTER":86.9425,"MEAN_ANOMALY":273.188,"EPHEMERIS_TYPE":0,"CLASSIFICATION_TYPE":"U","NORAD_CAT_ID":45451,"ELEMENT_SET_NO":999,"REV_AT_EPOCH":28918,"BSTAR":-0.00096195694,"MEAN_MOTION_DOT":-3.28e-6,"MEAN_MOTION_DDOT":0},{"OBJECT_NAME":"ONEWEB-0082","OBJECT_ID":"2020-020AE","EPOCH":"2026-03-06T22:37:49.339488","MEAN_MOTION":13.11415111,"ECCENTRICITY":0.00016144,"INCLINATION":87.8869,"RA_OF_ASC_NODE":41.3804,"ARG_OF_PERICENTER":89.05,"MEAN_ANOMALY":271.0813,"EPHEMERIS_TYPE":0,"CLASSIFICATION_TYPE":"U","NORAD_CAT_ID":45452,"ELEMENT_SET_NO":999,"REV_AT_EPOCH":28927,"BSTAR":-0.0010712416,"MEAN_MOTION_DOT":-3.67e-6,"MEAN_MOTION_DDOT":0},{"OBJECT_NAME":"ONEWEB-0050","OBJECT_ID":"2020-020AF","EPOCH":"2026-03-07T00:06:40.911552","MEAN_MOTION":14.89990317,"ECCENTRICITY":0.0003421,"INCLINATION":88.9197,"RA_OF_ASC_NODE":247.1226,"ARG_OF_PERICENTER":26.9209,"MEAN_ANOMALY":333.2197,"EPHEMERIS_TYPE":0,"CLASSIFICATION_TYPE":"U","NORAD_CAT_ID":45453,"ELEMENT_SET_NO":999,"REV_AT_EPOCH":32516,"BSTAR":0.00020681423,"MEAN_MOTION_DOT":2.014e-5,"MEAN_MOTION_DDOT":0}]
